MONITOR-2 (RS39S)       
1 57184U 23091U   25107.20895050  .00010376  00000+0  57801-3 0  9994
2 57184  97.5660 163.2101 0013846 143.8862 216.3308 15.13722042 99400
SVYATOBOR 1 (RS60S)     
1 57187U 23091X   25107.20725091  .00015717  00000+0  77566-3 0  9998
2 57187  97.5658 164.9076 0012892 137.7870 222.4358 15.17912955 99513
VIZARD-METEO (RS38S)    
1 57189U 23091Z   25107.17690642  .00024107  00000+0  10535-2 0  9994
2 57189  97.5644 166.4119 0011470 133.0353 227.1845 15.22034804 99619
NANOZOND 1 (RS49S)      
1 57190U 23091AA  25107.16879748  .00047504  00000+0  15102-2 0  9992
2 57190  97.5599 169.4059 0008946 132.6090 227.5908 15.32428255 99828
POLYTECH-UNIVERSE 3 (R*)
1 57191U 23091AB  25107.21148991  .00010684  00000+0  59300-3 0  9996
2 57191  97.5629 162.7742 0018212 160.6953 199.4973 15.13783790 99392
UTMN 2 (RS27S)          
1 57203U 23091AP  25107.15926193  .00021155  00000+0  96865-3 0  9993
2 57203  97.5646 165.8173 0011999 134.0751 226.1474 15.20457695 99577
ARCCUBE 1 (RS25S)       
1 57205U 23091AR  25107.21137077  .00069631  00000+0  17385-2 0  9997
2 57205  97.5520 170.9130 0007986 133.7928 226.3979 15.39887129 99945
KUZGTU 1 (RS47S)        
1 57217U 23091AV  25107.21086734  .00019555  00000+0  93625-3 0  9995
2 57217  97.5633 164.4189 0015431 146.5226 213.6987 15.18889026 99495
SONATE-2                
1 59112U 24043Q   25106.90240923  .00066294  00000+0  20245-2 0  9995
2 59112  97.5059 237.1094 0010376 304.7406  55.2859 15.33604986 62100
MESAT1                  
1 60209U 24125G   25107.05779902  .00073958  00000+0  22263-2 0  9993
2 60209  97.2859 319.3328 0018578 333.1053  26.9225 15.33909263 43740
OOV-CUBE (TUBSAT-30)    
1 60240U 24128F   25106.93657383  .00010866  00000+0  86725-3 0  9998
2 60240  61.9962 268.6344 0046300  42.3441 318.1207 14.99892696 42114
COLIBRI-S (RS67S)       
1 61746U 24199M   25107.17123635  .00024145  00000+0  80630-3 0  9997
2 61746  97.3646 336.1842 0013021  22.7416 337.4399 15.30949606 71916
HORS 3 (RS81S)          
1 61753U 24199U   25107.20353275  .00028577  00000+0  92571-3 0  9994
2 61753  97.3614 336.2335 0011648  30.2997 329.8916 15.31911255 71929
HORS 4 (RS82S)          
1 61754U 24199V   25107.16576191  .00032042  00000+0  10165-2 0  9994
2 61754  97.3612 336.2785 0011682  31.0457 329.1473 15.32557818 71928
HORIZON (RS59S)         
1 61757U 24199Y   25107.18665609  .00043981  00000+0  12932-2 0  9990
2 61757  97.3636 336.6091 0011714  20.5244 339.6468 15.34899396 71948
SIT-2086                
1 61764U 24199AF  25107.22225500  .00035082  00000+0  10789-2 0  9996
2 61764  97.3616 336.5131 0010103  32.7514 327.4353 15.33546248 68784
MORDOVIA-IOT (RS50S)    
1 61765U 24199AG  25107.22906085  .00052086  00000+0  13945-2 0  9991
2 61765  97.3621 337.0000 0010811  17.6684 342.4935 15.37795796 68824
RUZAEVKA 390 (RS44S)    
1 61766U 24199AH  25107.20249045  .00047583  00000+0  13144-2 0  9993
2 61766  97.3620 336.8796 0010864  17.2788 342.8824 15.36847535 68810
HYPERVIEW 1G (RS66S)    
1 61772U 24199AP  25107.19844509  .00034836  00000+0  10906-2 0  9994
2 61772  97.3610 336.2348 0014969  31.7605 328.4537 15.32919319 68774
ALTAIR (RS65S)          
1 61779U 24199AW  25107.18377979  .00016847  00000+0  61908-3 0  9993
2 61779  97.3630 335.6736 0016733  32.8475 327.3801 15.27846382 71886
ASRTU-1 (AO-123)        
1 61781U 24199AY  25107.20696484  .00013514  00000+0  50303-3 0  9999
2 61781  97.3622 335.6348 0016972  32.9808 327.2487 15.27468885 68732
TUSUR GO (RS78S)        
1 61782U 24199AZ  25107.20843005  .00041791  00000+0  12797-2 0  9995
2 61782  97.3606 336.2217 0015453  30.9981 329.2171 15.33576279 68770
SAMSAT-IONOSPHERE (RS7*)
1 61784U 24199BB  25107.22662073  .00031576  00000+0  10389-2 0  9998
2 61784  97.3619 336.0555 0016211  31.8290 328.3927 15.31327181 71918
RTU MIREA 1 (RS51S)     
1 61785U 24199BC  25107.21228200  .00031638  00000+0  10305-2 0  9995
2 61785  97.3617 336.0734 0015972  31.3623 328.8567 15.31655199 68761
HADES-R                 
1 62690U 25009CK  25106.68433601  .00057896  00000+0  23266-2 0  9999
2 62690  97.4110 187.8599 0002744 240.9609 119.1354 15.24716685 13925
